{
  "type": "FeatureCollection",
  "features": [
    {
      "type": "Feature",
      "properties": {
        "norad_id": 58647,
        "name": "TIANMU-1 13",
        "group": "weather",
        "lat": 32.434869111219264,
        "lon": 7.791701178763731,
        "alt_km": 493.9563941067345,
        "timestamp": "2025-12-18T23:35:48.689302+00:00",
        "meta_object_name": "TIANMU-1 13",
        "meta_object_id": "2023-205C",
        "meta_epoch": "2025-12-18T15:34:39.412128",
        "meta_mean_motion": 15.2459791,
        "meta_eccentricity": 0.0006201,
        "meta_inclination": 97.3613,
        "meta_ra_of_asc_node": 12.1758,
        "meta_arg_of_pericenter": 240.6512,
        "meta_mean_anomaly": 119.4107,
        "meta_ephemeris_type": 0,
        "meta_classification_type": "U",
        "meta_norad_cat_id": 58647,
        "meta_element_set_no": 999,
        "meta_rev_at_epoch": 10997,
        "meta_bstar": 0.00020672949,
        "meta_mean_motion_dot": 5.028e-05,
        "meta_mean_motion_ddot": 0,
        "tle_line1": "1 58647U 23205C   25352.64906727  .00005028  00000+0  20673-3 0  9995",
        "tle_line2": "2 58647  97.3613  12.1758 0006201 240.6512 119.4107 15.24597910109976"
      },
      "geometry": {
        "type": "Point",
        "coordinates": [
          7.791701178763731,
          32.434869111219264
        ]
      }
    },
    {
      "type": "Feature",
      "properties": {
        "norad_id": 58648,
        "name": "TIANMU-1 14",
        "group": "weather",
        "lat": 55.82395820765359,
        "lon": -157.18689938247684,
        "alt_km": 489.286634321179,
        "timestamp": "2025-12-18T23:35:48.689315+00:00",
        "meta_object_name": "TIANMU-1 14",
        "meta_object_id": "2023-205D",
        "meta_epoch": "2025-12-18T15:10:50.681856",
        "meta_mean_motion": 15.24581068,
        "meta_eccentricity": 0.00069405,
        "meta_inclination": 97.3546,
        "meta_ra_of_asc_node": 11.5028,
        "meta_arg_of_pericenter": 246.787,
        "meta_mean_anomaly": 113.2637,
        "meta_ephemeris_type": 0,
        "meta_classification_type": "U",
        "meta_norad_cat_id": 58648,
        "meta_element_set_no": 999,
        "meta_rev_at_epoch": 10997,
        "meta_bstar": 0.00020692672,
        "meta_mean_motion_dot": 5.031e-05,
        "meta_mean_motion_ddot": 0,
        "tle_line1": "1 58648U 23205D   25352.63253104  .00005031  00000+0  20693-3 0  9995",
        "tle_line2": "2 58648  97.3546  11.5028 0006940 246.7870 113.2637 15.24581068109976"
      },
      "geometry": {
        "type": "Point",
        "coordinates": [
          -157.18689938247684,
          55.82395820765359
        ]
      }
    },
    {
      "type": "Feature",
      "properties": {
        "norad_id": 58660,
        "name": "TIANMU-1 19",
        "group": "weather",
        "lat": 81.6457618316605,
        "lon": -13.144893281340472,
        "alt_km": 476.46075906432816,
        "timestamp": "2025-12-18T23:35:48.689326+00:00",
        "meta_object_name": "TIANMU-1 19",
        "meta_object_id": "2023-208A",
        "meta_epoch": "2025-12-18T13:45:25.816608",
        "meta_mean_motion": 15.27954681,
        "meta_eccentricity": 0.00043575,
        "meta_inclination": 97.4393,
        "meta_ra_of_asc_node": 103.5991,
        "meta_arg_of_pericenter": 227.0306,
        "meta_mean_anomaly": 133.0568,
        "meta_ephemeris_type": 0,
        "meta_classification_type": "U",
        "meta_norad_cat_id": 58660,
        "meta_element_set_no": 999,
        "meta_rev_at_epoch": 10971,
        "meta_bstar": 0.00029302191,
        "meta_mean_motion_dot": 7.921e-05,
        "meta_mean_motion_ddot": 0,
        "tle_line1": "1 58660U 23208A   25352.57321547  .00007921  00000+0  29302-3 0  9998",
        "tle_line2": "2 58660  97.4393 103.5991 0004357 227.0306 133.0568 15.27954681109711"
      },
      "geometry": {
        "type": "Point",
        "coordinates": [
          -13.144893281340472,
          81.6457618316605
        ]
      }
    },
    {
      "type": "Feature",
      "properties": {
        "norad_id": 58661,
        "name": "TIANMU-1 20",
        "group": "weather",
        "lat": -14.723362523841487,
        "lon": -77.5040319133139,
        "alt_km": 480.001784799897,
        "timestamp": "2025-12-18T23:35:48.689335+00:00",
        "meta_object_name": "TIANMU-1 20",
        "meta_object_id": "2023-208B",
        "meta_epoch": "2025-12-18T14:53:41.343360",
        "meta_mean_motion": 15.29145097,
        "meta_eccentricity": 0.00064796,
        "meta_inclination": 97.4331,
        "meta_ra_of_asc_node": 104.0998,
        "meta_arg_of_pericenter": 240.9891,
        "meta_mean_anomaly": 119.07,
        "meta_ephemeris_type": 0,
        "meta_classification_type": "U",
        "meta_norad_cat_id": 58661,
        "meta_element_set_no": 999,
        "meta_rev_at_epoch": 10979,
        "meta_bstar": 0.00027147394,
        "meta_mean_motion_dot": 7.608e-05,
        "meta_mean_motion_ddot": 0,
        "tle_line1": "1 58661U 23208B   25352.62061740  .00007608  00000+0  27147-3 0  9998",
        "tle_line2": "2 58661  97.4331 104.0998 0006479 240.9891 119.0700 15.29145097109792"
      },
      "geometry": {
        "type": "Point",
        "coordinates": [
          -77.5040319133139,
          -14.723362523841487
        ]
      }
    },
    {
      "type": "Feature",
      "properties": {
        "norad_id": 58662,
        "name": "TIANMU-1 21",
        "group": "weather",
        "lat": -74.28986158873828,
        "lon": -101.27673537824684,
        "alt_km": 474.2651812498989,
        "timestamp": "2025-12-18T23:35:48.689346+00:00",
        "meta_object_name": "TIANMU-1 21",
        "meta_object_id": "2023-208C",
        "meta_epoch": "2025-12-18T14:38:32.253792",
        "meta_mean_motion": 15.31674347,
        "meta_eccentricity": 0.00060911,
        "meta_inclination": 97.4379,
        "meta_ra_of_asc_node": 106.024,
        "meta_arg_of_pericenter": 235.2549,
        "meta_mean_anomaly": 124.8119,
        "meta_ephemeris_type": 0,
        "meta_classification_type": "U",
        "meta_norad_cat_id": 58662,
        "meta_element_set_no": 999,
        "meta_rev_at_epoch": 10989,
        "meta_bstar": 0.00031494479,
        "meta_mean_motion_dot": 9.561e-05,
        "meta_mean_motion_ddot": 0,
        "tle_line1": "1 58662U 23208C   25352.61009553  .00009561  00000+0  31494-3 0  9992",
        "tle_line2": "2 58662  97.4379 106.0240 0006091 235.2549 124.8119 15.31674347109891"
      },
      "geometry": {
        "type": "Point",
        "coordinates": [
          -101.27673537824684,
          -74.28986158873828
        ]
      }
    },
    {
      "type": "Feature",
      "properties": {
        "norad_id": 58663,
        "name": "TIANMU-1 22",
        "group": "weather",
        "lat": 82.53380379931221,
        "lon": 18.522114795663892,
        "alt_km": 476.9946249103332,
        "timestamp": "2025-12-18T23:35:48.689355+00:00",
        "meta_object_name": "TIANMU-1 22",
        "meta_object_id": "2023-208D",
        "meta_epoch": "2025-12-18T13:46:29.228160",
        "meta_mean_motion": 15.27701375,
        "meta_eccentricity": 0.00027105,
        "meta_inclination": 97.4387,
        "meta_ra_of_asc_node": 103.6563,
        "meta_arg_of_pericenter": 255.6858,
        "meta_mean_anomaly": 104.408,
        "meta_ephemeris_type": 0,
        "meta_classification_type": "U",
        "meta_norad_cat_id": 58663,
        "meta_element_set_no": 999,
        "meta_rev_at_epoch": 10972,
        "meta_bstar": 0.00026734245,
        "meta_mean_motion_dot": 7.163e-05,
        "meta_mean_motion_ddot": 0,
        "tle_line1": "1 58663U 23208D   25352.57394940  .00007163  00000+0  26734-3 0  9992",
        "tle_line2": "2 58663  97.4387 103.6563 0002710 255.6858 104.4080 15.27701375109725"
      },
      "geometry": {
        "type": "Point",
        "coordinates": [
          18.522114795663892,
          82.53380379931221
        ]
      }
    },
    {
      "type": "Feature",
      "properties": {
        "norad_id": 58700,
        "name": "TIANMU-1 15",
        "group": "weather",
        "lat": 32.51808977545117,
        "lon": -0.7777625965066023,
        "alt_km": 492.34009743851857,
        "timestamp": "2025-12-18T23:35:48.689366+00:00",
        "meta_object_name": "TIANMU-1 15",
        "meta_object_id": "2024-004A",
        "meta_epoch": "2025-12-18T15:04:36.200064",
        "meta_mean_motion": 15.2448368,
        "meta_eccentricity": 0.00059537,
        "meta_inclination": 97.4621,
        "meta_ra_of_asc_node": 174.0755,
        "meta_arg_of_pericenter": 265.5102,
        "meta_mean_anomaly": 94.5456,
        "meta_ephemeris_type": 0,
        "meta_classification_type": "U",
        "meta_norad_cat_id": 58700,
        "meta_element_set_no": 999,
        "meta_rev_at_epoch": 10824,
        "meta_bstar": 0.00024054207,
        "meta_mean_motion_dot": 5.841e-05,
        "meta_mean_motion_ddot": 0,
        "tle_line1": "1 58700U 24004A   25352.62819676  .00005841  00000+0  24054-3 0  9997",
        "tle_line2": "2 58700  97.4621 174.0755 0005953 265.5102  94.5456 15.24483680108242"
      },
      "geometry": {
        "type": "Point",
        "coordinates": [
          -0.7777625965066023,
          32.51808977545117
        ]
      }
    }
  ]
}